     3.04           N: GNSS NAV DATA    M: MIXED            RINEX VERSION / TYPE
ssrcrin-15.6.1x                         20250101 194500 UTC PGM / RUN BY / DATE 
    18                                                      LEAP SECONDS        
                                                            END OF HEADER       
S23 2025 01 01 19 44 00 0.000000000000E+00 0.000000000000E+00 3.303030000000E+05
     3.866796400000E+04 0.000000000000E+00 0.000000000000E+00 6.300000000000E+01
     1.681330800000E+04 0.000000000000E+00 0.000000000000E+00 3.276700000000E+04
     0.000000000000E+00 0.000000000000E+00 0.000000000000E+00 3.900000000000E+01
S36 2025 01 01 19 43 44 0.000000000000E+00 0.000000000000E+00 3.303050000000E+05
     4.200368800000E+04 0.000000000000E+00 0.000000000000E+00 6.300000000000E+01
     3.674846960000E+03 0.000000000000E+00 0.000000000000E+00 3.276700000000E+04
     0.000000000000E+00 0.000000000000E+00 0.000000000000E+00 1.060000000000E+02
S23 2025 01 01 19 45 52 0.000000000000E+00 0.000000000000E+00 3.303650000000E+05
     3.866796400000E+04 0.000000000000E+00 0.000000000000E+00 6.300000000000E+01
     1.681330800000E+04 0.000000000000E+00 0.000000000000E+00 3.276700000000E+04
     0.000000000000E+00 0.000000000000E+00 0.000000000000E+00 4.000000000000E+01
S36 2025 01 01 19 46 24 0.000000000000E+00 0.000000000000E+00 3.303850000000E+05
     4.200368800000E+04 0.000000000000E+00 0.000000000000E+00 6.300000000000E+01
     3.674846960000E+03 0.000000000000E+00 0.000000000000E+00 3.276700000000E+04
     0.000000000000E+00 0.000000000000E+00 0.000000000000E+00 1.070000000000E+02
S23 2025 01 01 19 48 00 0.000000000000E+00 0.000000000000E+00 3.304900000000E+05
     3.866796400000E+04 0.000000000000E+00 0.000000000000E+00 6.300000000000E+01
     1.681330800000E+04 0.000000000000E+00 0.000000000000E+00 3.276700000000E+04
     0.000000000000E+00 0.000000000000E+00 0.000000000000E+00 4.100000000000E+01
E23 2025 01 01 19 30 00 8.343427907676E-06-2.557953848736E-13 0.000000000000E+00
     4.100000000000E+01-2.140625000000E+01 3.527289782921E-09 1.805596194100E-01
    -9.313225746155E-07 3.613149747252E-04 6.405636668205E-06 5.440607267380E+03
     3.294000000000E+05-9.313225746155E-09 2.409459457418E+00 3.352761268616E-08
     9.661048192407E-01 2.057500000000E+02 1.613200306394E+00-5.527730252153E-09
    -4.871631494435E-10 5.170000000000E+02 2.347000000000E+03
     3.120000000000E+00 3.900000000000E+02-6.984919309616E-10 1.164153218269E-09
     3.305150000000E+05
S36 2025 01 01 19 48 48 0.000000000000E+00 0.000000000000E+00 3.305370000000E+05
     4.200368800000E+04 0.000000000000E+00 0.000000000000E+00 6.300000000000E+01
     3.674846960000E+03 0.000000000000E+00 0.000000000000E+00 3.276700000000E+04
     0.000000000000E+00 0.000000000000E+00 0.000000000000E+00 1.080000000000E+02
E23 2025 01 01 19 30 00 8.341216016561E-06-2.415845301584E-13 0.000000000000E+00
     4.100000000000E+01-2.140625000000E+01 3.527289782921E-09 1.805596194100E-01
    -9.313225746155E-07 3.613149747252E-04 6.405636668205E-06 5.440607267380E+03
     3.294000000000E+05-9.313225746155E-09 2.409459457418E+00 3.352761268616E-08
     9.661048192407E-01 2.057500000000E+02 1.613200306394E+00-5.527730252153E-09
    -4.871631494435E-10 2.580000000000E+02 2.347000000000E+03
     3.120000000000E+00 4.800000000000E+01-6.984919309616E-10 0.000000000000E+00
     3.305900000000E+05
E27 2025 01 01 19 30 00-5.451103206724E-04-9.919176591211E-12 0.000000000000E+00
     4.100000000000E+01-2.331250000000E+01 3.551933666580E-09 2.813751480249E+00
    -1.179054379463E-06 3.205046523362E-04 6.353482604027E-06 5.440603923798E+03
     3.294000000000E+05-4.842877388000E-08 2.413452604960E+00-9.126961231232E-08
     9.641945437386E-01 2.075625000000E+02 5.559279231666E-01-5.638091992019E-09
    -5.103784021662E-10 5.170000000000E+02 2.347000000000E+03
     3.120000000000E+00 0.000000000000E+00-2.328306436539E-10 2.328306436539E-10
     3.305940000000E+05
S23 2025 01 01 19 50 08 0.000000000000E+00 0.000000000000E+00 3.306160000000E+05
     3.866796400000E+04 0.000000000000E+00 0.000000000000E+00 6.300000000000E+01
     1.681330800000E+04 0.000000000000E+00 0.000000000000E+00 3.276700000000E+04
     0.000000000000E+00 0.000000000000E+00 0.000000000000E+00 4.200000000000E+01
E13 2025 01 01 19 40 00-2.861861139536E-05-4.121147867409E-13 0.000000000000E+00
     4.200000000000E+01 1.662187500000E+02 2.541177278805E-09 2.455932970826E+00
     7.798895239830E-06 3.830485511571E-04 1.810491085052E-06 5.440613864899E+03
     3.300000000000E+05-2.793967723846E-08-1.776008351179E+00 5.029141902924E-08
     9.996872243455E-01 3.204375000000E+02-1.108103206912E+00-5.587018436029E-09
     2.039370662260E-10 5.170000000000E+02 2.347000000000E+03
     3.120000000000E+00 0.000000000000E+00 2.561137080193E-09 3.259629011154E-09
     3.306650000000E+05
E23 2025 01 01 19 40 00 8.343253284693E-06-2.557953848736E-13 0.000000000000E+00
     4.200000000000E+01-2.221875000000E+01 3.524432521047E-09 2.547270410323E-01
    -9.685754776001E-07 3.613801673055E-04 6.394460797310E-06 5.440607469559E+03
     3.300000000000E+05-9.313225746155E-09 2.409456121965E+00 2.980232238770E-08
     9.661045295829E-01 2.059687500000E+02 1.613418832708E+00-5.525944463482E-09
    -4.860916762409E-10 5.170000000000E+02 2.347000000000E+03
     3.120000000000E+00 3.900000000000E+02-6.984919309616E-10 1.164153218269E-09
     3.306650000000E+05
S36 2025 01 01 19 51 28 0.000000000000E+00 0.000000000000E+00 3.306890000000E+05
     4.200368800000E+04 0.000000000000E+00 0.000000000000E+00 6.300000000000E+01
     3.674846960000E+03 0.000000000000E+00 0.000000000000E+00 3.276700000000E+04
     0.000000000000E+00 0.000000000000E+00 0.000000000000E+00 1.090000000000E+02
E14 2025 01 01 19 40 00 5.381411756389E-04 4.365574568510E-11 0.000000000000E+00
     4.200000000000E+01 1.887500000000E+01 6.547415583283E-09-1.195966338856E+00
    -5.178153514862E-07 1.620590050006E-01 8.096918463707E-06 5.289322795868E+03
     3.300000000000E+05-2.440065145493E-07-2.857716381735E+00-2.903863787651E-06
     8.637709507729E-01 1.772500000000E+02 2.786811305465E+00-9.178239453371E-09
     1.111832026552E-09 5.170000000000E+02 2.347000000000E+03
     3.120000000000E+00 1.300000000000E+02-3.958120942116E-09-4.423782229424E-09
     3.306950000000E+05
S23 2025 01 01 19 52 16 0.000000000000E+00 0.000000000000E+00 3.307390000000E+05
     3.866796400000E+04 0.000000000000E+00 0.000000000000E+00 6.300000000000E+01
     1.681330800000E+04 0.000000000000E+00 0.000000000000E+00 3.276700000000E+04
     0.000000000000E+00 0.000000000000E+00 0.000000000000E+00 4.300000000000E+01
E14 2025 01 01 19 40 00 5.381411174312E-04 4.365574568510E-11 0.000000000000E+00
     4.200000000000E+01 1.887500000000E+01 6.547415583283E-09-1.195966338856E+00
    -5.178153514862E-07 1.620590050006E-01 8.096918463707E-06 5.289322795868E+03
     3.300000000000E+05-2.440065145493E-07-2.857716381735E+00-2.903863787651E-06
     8.637709507729E-01 1.772500000000E+02 2.786811305465E+00-9.178239453371E-09
     1.111832026552E-09 2.580000000000E+02 2.347000000000E+03
     3.120000000000E+00 1.600000000000E+01-3.958120942116E-09 0.000000000000E+00
     3.307400000000E+05
E13 2025 01 01 19 40 00-2.861977554858E-05-3.979039320257E-13 0.000000000000E+00
     4.200000000000E+01 1.662187500000E+02 2.541177278805E-09 2.455932970826E+00
     7.798895239830E-06 3.830485511571E-04 1.810491085052E-06 5.440613864899E+03
     3.300000000000E+05-2.793967723846E-08-1.776008351179E+00 5.029141902924E-08
     9.996872243455E-01 3.204375000000E+02-1.108103206912E+00-5.587018436029E-09
     2.039370662260E-10 2.580000000000E+02 2.347000000000E+03
     3.120000000000E+00 0.000000000000E+00 2.561137080193E-09 0.000000000000E+00
     3.307400000000E+05
E23 2025 01 01 19 40 00 8.341041393578E-06-2.415845301584E-13 0.000000000000E+00
     4.200000000000E+01-2.221875000000E+01 3.524432521047E-09 2.547270410323E-01
    -9.685754776001E-07 3.613801673055E-04 6.394460797310E-06 5.440607469559E+03
     3.300000000000E+05-9.313225746155E-09 2.409456121965E+00 2.980232238770E-08
     9.661045295829E-01 2.059687500000E+02 1.613418832708E+00-5.525944463482E-09
    -4.860916762409E-10 2.580000000000E+02 2.347000000000E+03
     3.120000000000E+00 4.800000000000E+01-6.984919309616E-10 0.000000000000E+00
     3.307400000000E+05
S36 2025 01 01 19 53 52 0.000000000000E+00 0.000000000000E+00 3.308450000000E+05
     4.200368800000E+04 0.000000000000E+00 0.000000000000E+00 6.300000000000E+01
     3.674846960000E+03 0.000000000000E+00 0.000000000000E+00 3.276700000000E+04
     0.000000000000E+00 0.000000000000E+00 0.000000000000E+00 1.100000000000E+02
G21 2025 01 01 19 59 44 9.956164285541E-05 1.705302565824E-12 0.000000000000E+00
     3.000000000000E+01 1.254687500000E+02 4.658765484854E-09 6.601432564278E-01
     6.182119250298E-06 2.586494712159E-02 4.002824425697E-06 5.153622476578E+03
     3.311840000000E+05 5.289912223816E-07-1.956787586777E+00-2.235174179077E-07
     9.606518301361E-01 2.944062500000E+02-4.680443981450E-01-8.487853553170E-09
     9.821837690392E-11 1.000000000000E+00 2.347000000000E+03 0.000000000000E+00
     2.000000000000E+00 0.000000000000E+00-1.024454832077E-08 3.000000000000E+01
     3.308580000000E+05 4.000000000000E+00
S23 2025 01 01 19 54 24 0.000000000000E+00 0.000000000000E+00 3.308640000000E+05
     3.866796400000E+04 0.000000000000E+00 0.000000000000E+00 6.300000000000E+01
     1.681330800000E+04 0.000000000000E+00 0.000000000000E+00 3.276700000000E+04
     0.000000000000E+00 0.000000000000E+00 0.000000000000E+00 4.400000000000E+01
S23 2025 01 01 19 56 16 0.000000000000E+00 0.000000000000E+00 3.309900000000E+05
     3.866796400000E+04 0.000000000000E+00 0.000000000000E+00 6.300000000000E+01
     1.681330800000E+04 0.000000000000E+00 0.000000000000E+00 3.276700000000E+04
     0.000000000000E+00 0.000000000000E+00 0.000000000000E+00 4.500000000000E+01
S36 2025 01 01 19 56 32 0.000000000000E+00 0.000000000000E+00 3.309970000000E+05
     4.200368800000E+04 0.000000000000E+00 0.000000000000E+00 6.300000000000E+01
     3.674846960000E+03 0.000000000000E+00 0.000000000000E+00 3.276700000000E+04
     0.000000000000E+00 0.000000000000E+00 0.000000000000E+00 1.110000000000E+02
R11 2025 01 01 19 45 00 2.006068825722E-06-1.818989403546E-12 3.310500000000E+05
    -1.239976806641E+04 2.818605422974E+00 9.313225746155E-10 0.000000000000E+00
    -8.256729492188E+03-3.098449707031E-01 9.313225746155E-10 0.000000000000E+00
     2.071520410156E+04 1.562370300293E+00-2.793967723846E-09 0.000000000000E+00
S23 2025 01 01 19 58 24 0.000000000000E+00 0.000000000000E+00 3.311130000000E+05
     3.866796400000E+04 0.000000000000E+00 0.000000000000E+00 6.300000000000E+01
     1.681330800000E+04 0.000000000000E+00 0.000000000000E+00 3.276700000000E+04
     0.000000000000E+00 0.000000000000E+00 0.000000000000E+00 4.600000000000E+01
S36 2025 01 01 19 59 12 0.000000000000E+00 0.000000000000E+00 3.311530000000E+05
     4.200368800000E+04 0.000000000000E+00 0.000000000000E+00 6.300000000000E+01
     3.674846960000E+03 0.000000000000E+00 0.000000000000E+00 3.276700000000E+04
     0.000000000000E+00 0.000000000000E+00 0.000000000000E+00 1.120000000000E+02
